{
  "type": "FeatureCollection",
  "features": [
    {
      "type": "Feature",
      "properties": {
        "norad_id": 38055,
        "name": "COSMOS 2251 DEB",
        "group": "cosmos-2251-debris",
        "lat": -3.511244074010305,
        "lon": 18.994905858630172,
        "alt_km": 677.6031246888524,
        "timestamp": "2025-12-17T04:57:44.758438+00:00",
        "meta_object_name": "COSMOS 2251 DEB",
        "meta_object_id": "1993-036BRM",
        "meta_epoch": "2025-12-14T22:46:42.153600",
        "meta_mean_motion": 14.77004867,
        "meta_eccentricity": 0.00658572,
        "meta_inclination": 74.0091,
        "meta_ra_of_asc_node": 202.4184,
        "meta_arg_of_pericenter": 329.4708,
        "meta_mean_anomaly": 94.9571,
        "meta_ephemeris_type": 0,
        "meta_classification_type": "U",
        "meta_norad_cat_id": 38055,
        "meta_element_set_no": 999,
        "meta_rev_at_epoch": 60715,
        "meta_bstar": 0.00052350473,
        "meta_mean_motion_dot": 3.79e-05,
        "meta_mean_motion_ddot": 0,
        "tle_line1": "1 38055U 93036BRM 25348.94909900  .00003790  00000+0  52350-3 0  9990",
        "tle_line2": "2 38055  74.0091 202.4184 0065857 329.4708  94.9571 14.77004867607157"
      },
      "geometry": {
        "type": "Point",
        "coordinates": [
          18.994905858630172,
          -3.511244074010305
        ]
      }
    },
    {
      "type": "Feature",
      "properties": {
        "norad_id": 38060,
        "name": "COSMOS 2251 DEB",
        "group": "cosmos-2251-debris",
        "lat": -17.461522387593565,
        "lon": 111.89596117764111,
        "alt_km": 725.2421026380061,
        "timestamp": "2025-12-17T04:57:44.758448+00:00",
        "meta_object_name": "COSMOS 2251 DEB",
        "meta_object_id": "1993-036BRS",
        "meta_epoch": "2025-12-16T13:18:05.506560",
        "meta_mean_motion": 14.63880294,
        "meta_eccentricity": 0.00582507,
        "meta_inclination": 74.0431,
        "meta_ra_of_asc_node": 287.9841,
        "meta_arg_of_pericenter": 33.0197,
        "meta_mean_anomaly": 327.4585,
        "meta_ephemeris_type": 0,
        "meta_classification_type": "U",
        "meta_norad_cat_id": 38060,
        "meta_element_set_no": 999,
        "meta_rev_at_epoch": 72020,
        "meta_bstar": 0.00043688442,
        "meta_mean_motion_dot": 2.309e-05,
        "meta_mean_motion_ddot": 0,
        "tle_line1": "1 38060U 93036BRS 25350.55423040  .00002309  00000+0  43688-3 0  9991",
        "tle_line2": "2 38060  74.0431 287.9841 0058250  33.0197 327.4585 14.63880294720200"
      },
      "geometry": {
        "type": "Point",
        "coordinates": [
          111.89596117764111,
          -17.461522387593565
        ]
      }
    },
    {
      "type": "Feature",
      "properties": {
        "norad_id": 38062,
        "name": "COSMOS 2251 DEB",
        "group": "cosmos-2251-debris",
        "lat": -50.77124101067806,
        "lon": -99.11682588078263,
        "alt_km": 590.2828365476425,
        "timestamp": "2025-12-17T04:57:44.758457+00:00",
        "meta_object_name": "COSMOS 2251 DEB",
        "meta_object_id": "1993-036BRU",
        "meta_epoch": "2025-12-12T07:01:37.512192",
        "meta_mean_motion": 14.94806818,
        "meta_eccentricity": 0.00123829,
        "meta_inclination": 74.0077,
        "meta_ra_of_asc_node": 291.3712,
        "meta_arg_of_pericenter": 60.6656,
        "meta_mean_anomaly": 90.0551,
        "meta_ephemeris_type": 0,
        "meta_classification_type": "U",
        "meta_norad_cat_id": 38062,
        "meta_element_set_no": 999,
        "meta_rev_at_epoch": 63023,
        "meta_bstar": 0.0035861639,
        "meta_mean_motion_dot": 0.00039272,
        "meta_mean_motion_ddot": 0,
        "tle_line1": "1 38062U 93036BRU 25346.29279528  .00039272  00000+0  35862-2 0  9992",
        "tle_line2": "2 38062  74.0077 291.3712 0012382  60.6656  90.0551 14.94806818630239"
      },
      "geometry": {
        "type": "Point",
        "coordinates": [
          -99.11682588078263,
          -50.77124101067806
        ]
      }
    },
    {
      "type": "Feature",
      "properties": {
        "norad_id": 38064,
        "name": "COSMOS 2251 DEB",
        "group": "cosmos-2251-debris",
        "lat": -34.543044108188234,
        "lon": 104.28055040580713,
        "alt_km": 710.4795325341256,
        "timestamp": "2025-12-17T04:57:44.758465+00:00",
        "meta_object_name": "COSMOS 2251 DEB",
        "meta_object_id": "1993-036BRW",
        "meta_epoch": "2025-12-15T18:30:24.409440",
        "meta_mean_motion": 14.56328099,
        "meta_eccentricity": 0.00473514,
        "meta_inclination": 74.0215,
        "meta_ra_of_asc_node": 118.3811,
        "meta_arg_of_pericenter": 237.4886,
        "meta_mean_anomaly": 122.1698,
        "meta_ephemeris_type": 0,
        "meta_classification_type": "U",
        "meta_norad_cat_id": 38064,
        "meta_element_set_no": 999,
        "meta_rev_at_epoch": 71909,
        "meta_bstar": 0.0007096549,
        "meta_mean_motion_dot": 3.164e-05,
        "meta_mean_motion_ddot": 0,
        "tle_line1": "1 38064U 93036BRW 25349.77111585  .00003164  00000+0  70965-3 0  9993",
        "tle_line2": "2 38064  74.0215 118.3811 0047351 237.4886 122.1698 14.56328099719095"
      },
      "geometry": {
        "type": "Point",
        "coordinates": [
          104.28055040580713,
          -34.543044108188234
        ]
      }
    },
    {
      "type": "Feature",
      "properties": {
        "norad_id": 38067,
        "name": "COSMOS 2251 DEB",
        "group": "cosmos-2251-debris",
        "lat": 19.67802579328732,
        "lon": -88.16206712974979,
        "alt_km": 647.4294562805308,
        "timestamp": "2025-12-17T04:57:44.758475+00:00",
        "meta_object_name": "COSMOS 2251 DEB",
        "meta_object_id": "1993-036BRZ",
        "meta_epoch": "2025-12-14T13:35:01.091904",
        "meta_mean_motion": 14.61135602,
        "meta_eccentricity": 0.00694851,
        "meta_inclination": 74.0173,
        "meta_ra_of_asc_node": 271.0073,
        "meta_arg_of_pericenter": 58.167,
        "meta_mean_anomaly": 117.7661,
        "meta_ephemeris_type": 0,
        "meta_classification_type": "U",
        "meta_norad_cat_id": 38067,
        "meta_element_set_no": 999,
        "meta_rev_at_epoch": 62582,
        "meta_bstar": 0.00041702153,
        "meta_mean_motion_dot": 2.092e-05,
        "meta_mean_motion_ddot": 0,
        "tle_line1": "1 38067U 93036BRZ 25348.56598486  .00002092  00000+0  41702-3 0  9997",
        "tle_line2": "2 38067  74.0173 271.0073 0069485  58.1670 117.7661 14.61135602625828"
      },
      "geometry": {
        "type": "Point",
        "coordinates": [
          -88.16206712974979,
          19.67802579328732
        ]
      }
    },
    {
      "type": "Feature",
      "properties": {
        "norad_id": 38068,
        "name": "COSMOS 2251 DEB",
        "group": "cosmos-2251-debris",
        "lat": 70.65355980030208,
        "lon": 65.35614736984203,
        "alt_km": 759.4772136429192,
        "timestamp": "2025-12-17T04:57:44.758484+00:00",
        "meta_object_name": "COSMOS 2251 DEB",
        "meta_object_id": "1993-036BSA",
        "meta_epoch": "2025-11-26T00:12:22.263264",
        "meta_mean_motion": 14.35960004,
        "meta_eccentricity": 0.00240903,
        "meta_inclination": 74.0219,
        "meta_ra_of_asc_node": 338.9788,
        "meta_arg_of_pericenter": 72.1007,
        "meta_mean_anomaly": 288.2769,
        "meta_ephemeris_type": 0,
        "meta_classification_type": "U",
        "meta_norad_cat_id": 38068,
        "meta_element_set_no": 999,
        "meta_rev_at_epoch": 66406,
        "meta_bstar": 0.00028750999,
        "meta_mean_motion_dot": 8.11e-06,
        "meta_mean_motion_ddot": 0,
        "tle_line1": "1 38068U 93036BSA 25330.00859101  .00000811  00000+0  28751-3 0  9998",
        "tle_line2": "2 38068  74.0219 338.9788 0024090  72.1007 288.2769 14.35960004664064"
      },
      "geometry": {
        "type": "Point",
        "coordinates": [
          65.35614736984203,
          70.65355980030208
        ]
      }
    },
    {
      "type": "Feature",
      "properties": {
        "norad_id": 38197,
        "name": "COSMOS 2251 DEB",
        "group": "cosmos-2251-debris",
        "lat": -15.185923844609112,
        "lon": -16.210644092430268,
        "alt_km": 694.7807089069483,
        "timestamp": "2025-12-17T04:57:44.758493+00:00",
        "meta_object_name": "COSMOS 2251 DEB",
        "meta_object_id": "1993-036BSM",
        "meta_epoch": "2025-12-16T06:14:02.328288",
        "meta_mean_motion": 14.74215127,
        "meta_eccentricity": 0.01256615,
        "meta_inclination": 73.9373,
        "meta_ra_of_asc_node": 350.1341,
        "meta_arg_of_pericenter": 226.7018,
        "meta_mean_anomaly": 132.3623,
        "meta_ephemeris_type": 0,
        "meta_classification_type": "U",
        "meta_norad_cat_id": 38197,
        "meta_element_set_no": 999,
        "meta_rev_at_epoch": 85807,
        "meta_bstar": 0.0024676247,
        "meta_mean_motion_dot": 0.00018525,
        "meta_mean_motion_ddot": 0,
        "tle_line1": "1 38197U 93036BSM 25350.25974917  .00018525  00000+0  24676-2 0  9995",
        "tle_line2": "2 38197  73.9373 350.1341 0125661 226.7018 132.3623 14.74215127858078"
      },
      "geometry": {
        "type": "Point",
        "coordinates": [
          -16.210644092430268,
          -15.185923844609112
        ]
      }
    }
  ]
}